IRAS
1 13777U 83004A   20029.52953267 -.00000118 00000-0 -49936-4 0  9999
2 13777 098.9546 215.1308 0017563 289.8303 070.0968 14.00452307560123
GGSE4
1  2828U 67053C   20029.40457434 -.00000021 +00000-0 23202-4 0  9992
2  2828 069.9717 026.4986 0010123 305.3980 054.6180 13.97443585682561
